<?xml version="1.0" encoding="UTF-8"?>
<ndm xmlns:xsi="http://www.w3.org/2001/XMLSchema-instance" xsi:noNamespaceSchemaLocation="https://sanaregistry.org/r/ndmxml_unqualified/ndmxml-2.0.0-master-2.0.xsd">
<omm id="CCSDS_OMM_VERS" version="2.0">
<header><CREATION_DATE/><ORIGINATOR/></header><body><segment><metadata><OBJECT_NAME>ORBCOMM-X [-]</OBJECT_NAME><OBJECT_ID>1991-050C</OBJECT_ID><CENTER_NAME>EARTH</CENTER_NAME><REF_FRAME>TEME</REF_FRAME><TIME_SYSTEM>UTC</TIME_SYSTEM><MEAN_ELEMENT_THEORY>SGP4</MEAN_ELEMENT_THEORY></metadata><data><meanElements><EPOCH>2023-11-12T17:49:56.007840</EPOCH><MEAN_MOTION>14.42252882</MEAN_MOTION><ECCENTRICITY>.0004518</ECCENTRICITY><INCLINATION>98.4192</INCLINATION><RA_OF_ASC_NODE>22.2063</RA_OF_ASC_NODE><ARG_OF_PERICENTER>133.9453</ARG_OF_PERICENTER><MEAN_ANOMALY>226.2110</MEAN_ANOMALY></meanElements><tleParameters><EPHEMERIS_TYPE>0</EPHEMERIS_TYPE><CLASSIFICATION_TYPE>U</CLASSIFICATION_TYPE><NORAD_CAT_ID>21576</NORAD_CAT_ID><ELEMENT_SET_NO>999</ELEMENT_SET_NO><REV_AT_EPOCH>69813</REV_AT_EPOCH><BSTAR>.18739E-3</BSTAR><MEAN_MOTION_DOT>.574E-5</MEAN_MOTION_DOT><MEAN_MOTION_DDOT>0</MEAN_MOTION_DDOT></tleParameters></data></segment></body></omm>
<omm id="CCSDS_OMM_VERS" version="2.0">
<header><CREATION_DATE/><ORIGINATOR/></header><body><segment><metadata><OBJECT_NAME>ORBCOMM FM01 [-]</OBJECT_NAME><OBJECT_ID>1995-017A</OBJECT_ID><CENTER_NAME>EARTH</CENTER_NAME><REF_FRAME>TEME</REF_FRAME><TIME_SYSTEM>UTC</TIME_SYSTEM><MEAN_ELEMENT_THEORY>SGP4</MEAN_ELEMENT_THEORY></metadata><data><meanElements><EPOCH>2023-11-12T17:42:55.460160</EPOCH><MEAN_MOTION>14.77274603</MEAN_MOTION><ECCENTRICITY>.0002471</ECCENTRICITY><INCLINATION>69.9691</INCLINATION><RA_OF_ASC_NODE>70.4984</RA_OF_ASC_NODE><ARG_OF_PERICENTER>151.0211</ARG_OF_PERICENTER><MEAN_ANOMALY>209.1074</MEAN_ANOMALY></meanElements><tleParameters><EPHEMERIS_TYPE>0</EPHEMERIS_TYPE><CLASSIFICATION_TYPE>U</CLASSIFICATION_TYPE><NORAD_CAT_ID>23545</NORAD_CAT_ID><ELEMENT_SET_NO>999</ELEMENT_SET_NO><REV_AT_EPOCH>52615</REV_AT_EPOCH><BSTAR>.94702E-3</BSTAR><MEAN_MOTION_DOT>.6658E-4</MEAN_MOTION_DOT><MEAN_MOTION_DDOT>0</MEAN_MOTION_DDOT></tleParameters></data></segment></body></omm>
<omm id="CCSDS_OMM_VERS" version="2.0">
<header><CREATION_DATE/><ORIGINATOR/></header><body><segment><metadata><OBJECT_NAME>ORBCOMM FM02 [-]</OBJECT_NAME><OBJECT_ID>1995-017B</OBJECT_ID><CENTER_NAME>EARTH</CENTER_NAME><REF_FRAME>TEME</REF_FRAME><TIME_SYSTEM>UTC</TIME_SYSTEM><MEAN_ELEMENT_THEORY>SGP4</MEAN_ELEMENT_THEORY></metadata><data><meanElements><EPOCH>2023-11-12T18:51:04.932000</EPOCH><MEAN_MOTION>14.76788841</MEAN_MOTION><ECCENTRICITY>.0004286</ECCENTRICITY><INCLINATION>69.9699</INCLINATION><RA_OF_ASC_NODE>89.4867</RA_OF_ASC_NODE><ARG_OF_PERICENTER>124.9375</ARG_OF_PERICENTER><MEAN_ANOMALY>235.2176</MEAN_ANOMALY></meanElements><tleParameters><EPHEMERIS_TYPE>0</EPHEMERIS_TYPE><CLASSIFICATION_TYPE>U</CLASSIFICATION_TYPE><NORAD_CAT_ID>23546</NORAD_CAT_ID><ELEMENT_SET_NO>999</ELEMENT_SET_NO><REV_AT_EPOCH>52581</REV_AT_EPOCH><BSTAR>.13813E-2</BSTAR><MEAN_MOTION_DOT>.964E-4</MEAN_MOTION_DOT><MEAN_MOTION_DDOT>0</MEAN_MOTION_DDOT></tleParameters></data></segment></body></omm>
<omm id="CCSDS_OMM_VERS" version="2.0">
<header><CREATION_DATE/><ORIGINATOR/></header><body><segment><metadata><OBJECT_NAME>ORBCOMM FM08 [-]</OBJECT_NAME><OBJECT_ID>1997-084A</OBJECT_ID><CENTER_NAME>EARTH</CENTER_NAME><REF_FRAME>TEME</REF_FRAME><TIME_SYSTEM>UTC</TIME_SYSTEM><MEAN_ELEMENT_THEORY>SGP4</MEAN_ELEMENT_THEORY></metadata><data><meanElements><EPOCH>2023-11-12T14:41:46.966560</EPOCH><MEAN_MOTION>14.41548147</MEAN_MOTION><ECCENTRICITY>.0006591</ECCENTRICITY><INCLINATION>45.0151</INCLINATION><RA_OF_ASC_NODE>274.3671</RA_OF_ASC_NODE><ARG_OF_PERICENTER>201.9093</ARG_OF_PERICENTER><MEAN_ANOMALY>158.1475</MEAN_ANOMALY></meanElements><tleParameters><EPHEMERIS_TYPE>0</EPHEMERIS_TYPE><CLASSIFICATION_TYPE>U</CLASSIFICATION_TYPE><NORAD_CAT_ID>25112</NORAD_CAT_ID><ELEMENT_SET_NO>999</ELEMENT_SET_NO><REV_AT_EPOCH>35736</REV_AT_EPOCH><BSTAR>.79216E-3</BSTAR><MEAN_MOTION_DOT>.2457E-4</MEAN_MOTION_DOT><MEAN_MOTION_DDOT>0</MEAN_MOTION_DDOT></tleParameters></data></segment></body></omm>
<omm id="CCSDS_OMM_VERS" version="2.0">
<header><CREATION_DATE/><ORIGINATOR/></header><body><segment><metadata><OBJECT_NAME>ORBCOMM FM10 [-]</OBJECT_NAME><OBJECT_ID>1997-084B</OBJECT_ID><CENTER_NAME>EARTH</CENTER_NAME><REF_FRAME>TEME</REF_FRAME><TIME_SYSTEM>UTC</TIME_SYSTEM><MEAN_ELEMENT_THEORY>SGP4</MEAN_ELEMENT_THEORY></metadata><data><meanElements><EPOCH>2023-11-12T21:17:46.576032</EPOCH><MEAN_MOTION>14.41486996</MEAN_MOTION><ECCENTRICITY>.000361</ECCENTRICITY><INCLINATION>45.0163</INCLINATION><RA_OF_ASC_NODE>274.7909</RA_OF_ASC_NODE><ARG_OF_PERICENTER>175.0673</ARG_OF_PERICENTER><MEAN_ANOMALY>185.0213</MEAN_ANOMALY></meanElements><tleParameters><EPHEMERIS_TYPE>0</EPHEMERIS_TYPE><CLASSIFICATION_TYPE>U</CLASSIFICATION_TYPE><NORAD_CAT_ID>25113</NORAD_CAT_ID><ELEMENT_SET_NO>999</ELEMENT_SET_NO><REV_AT_EPOCH>53238</REV_AT_EPOCH><BSTAR>.69411E-3</BSTAR><MEAN_MOTION_DOT>.2132E-4</MEAN_MOTION_DOT><MEAN_MOTION_DDOT>0</MEAN_MOTION_DDOT></tleParameters></data></segment></body></omm>
<omm id="CCSDS_OMM_VERS" version="2.0">
<header><CREATION_DATE/><ORIGINATOR/></header><body><segment><metadata><OBJECT_NAME>ORBCOMM FM11 [+]</OBJECT_NAME><OBJECT_ID>1997-084C</OBJECT_ID><CENTER_NAME>EARTH</CENTER_NAME><REF_FRAME>TEME</REF_FRAME><TIME_SYSTEM>UTC</TIME_SYSTEM><MEAN_ELEMENT_THEORY>SGP4</MEAN_ELEMENT_THEORY></metadata><data><meanElements><EPOCH>2023-11-12T14:44:55.717728</EPOCH><MEAN_MOTION>14.41375649</MEAN_MOTION><ECCENTRICITY>.0004326</ECCENTRICITY><INCLINATION>45.0148</INCLINATION><RA_OF_ASC_NODE>276.0239</RA_OF_ASC_NODE><ARG_OF_PERICENTER>171.6627</ARG_OF_PERICENTER><MEAN_ANOMALY>188.4296</MEAN_ANOMALY></meanElements><tleParameters><EPHEMERIS_TYPE>0</EPHEMERIS_TYPE><CLASSIFICATION_TYPE>U</CLASSIFICATION_TYPE><NORAD_CAT_ID>25114</NORAD_CAT_ID><ELEMENT_SET_NO>999</ELEMENT_SET_NO><REV_AT_EPOCH>35731</REV_AT_EPOCH><BSTAR>.75989E-3</BSTAR><MEAN_MOTION_DOT>.2342E-4</MEAN_MOTION_DOT><MEAN_MOTION_DDOT>0</MEAN_MOTION_DDOT></tleParameters></data></segment></body></omm>
<omm id="CCSDS_OMM_VERS" version="2.0">
<header><CREATION_DATE/><ORIGINATOR/></header><body><segment><metadata><OBJECT_NAME>ORBCOMM FM12 [-]</OBJECT_NAME><OBJECT_ID>1997-084D</OBJECT_ID><CENTER_NAME>EARTH</CENTER_NAME><REF_FRAME>TEME</REF_FRAME><TIME_SYSTEM>UTC</TIME_SYSTEM><MEAN_ELEMENT_THEORY>SGP4</MEAN_ELEMENT_THEORY></metadata><data><meanElements><EPOCH>2023-11-12T13:42:15.905088</EPOCH><MEAN_MOTION>14.41357058</MEAN_MOTION><ECCENTRICITY>.0003405</ECCENTRICITY><INCLINATION>45.0156</INCLINATION><RA_OF_ASC_NODE>275.8785</RA_OF_ASC_NODE><ARG_OF_PERICENTER>176.9452</ARG_OF_PERICENTER><MEAN_ANOMALY>183.1419</MEAN_ANOMALY></meanElements><tleParameters><EPHEMERIS_TYPE>0</EPHEMERIS_TYPE><CLASSIFICATION_TYPE>U</CLASSIFICATION_TYPE><NORAD_CAT_ID>25115</NORAD_CAT_ID><ELEMENT_SET_NO>999</ELEMENT_SET_NO><REV_AT_EPOCH>35710</REV_AT_EPOCH><BSTAR>.73869E-3</BSTAR><MEAN_MOTION_DOT>.2271E-4</MEAN_MOTION_DOT><MEAN_MOTION_DDOT>0</MEAN_MOTION_DDOT></tleParameters></data></segment></body></omm>
<omm id="CCSDS_OMM_VERS" version="2.0">
<header><CREATION_DATE/><ORIGINATOR/></header><body><segment><metadata><OBJECT_NAME>ORBCOMM FM09 [-]</OBJECT_NAME><OBJECT_ID>1997-084E</OBJECT_ID><CENTER_NAME>EARTH</CENTER_NAME><REF_FRAME>TEME</REF_FRAME><TIME_SYSTEM>UTC</TIME_SYSTEM><MEAN_ELEMENT_THEORY>SGP4</MEAN_ELEMENT_THEORY></metadata><data><meanElements><EPOCH>2023-11-12T22:11:52.461600</EPOCH><MEAN_MOTION>14.41329309</MEAN_MOTION><ECCENTRICITY>.0004274</ECCENTRICITY><INCLINATION>45.0159</INCLINATION><RA_OF_ASC_NODE>274.8298</RA_OF_ASC_NODE><ARG_OF_PERICENTER>153.0070</ARG_OF_PERICENTER><MEAN_ANOMALY>207.1003</MEAN_ANOMALY></meanElements><tleParameters><EPHEMERIS_TYPE>0</EPHEMERIS_TYPE><CLASSIFICATION_TYPE>U</CLASSIFICATION_TYPE><NORAD_CAT_ID>25116</NORAD_CAT_ID><ELEMENT_SET_NO>999</ELEMENT_SET_NO><REV_AT_EPOCH>35736</REV_AT_EPOCH><BSTAR>.62568E-3</BSTAR><MEAN_MOTION_DOT>.1901E-4</MEAN_MOTION_DOT><MEAN_MOTION_DDOT>0</MEAN_MOTION_DDOT></tleParameters></data></segment></body></omm>

</ndm>
